H-2A R/B                
1 27601U 02056E   14283.29833346  .00000155  00000-0  72608-4 0  2075
2 27601  98.4753   3.2647 0071502 319.5433  85.6763 14.31425410617463
CZ-4B R/B               
1 28059U 03049C   14283.69676350  .00000152  00000-0  49227-4 0  1864
2 28059  98.6858 126.4163 0050103 353.1829  47.4376 14.52168619581359
CZ-2C R/B               
1 28222U 04012C   14284.49575000  .00004593  00000-0  32448-3 0  3676
2 28222  97.3903 254.4606 0052569 302.9564 167.8691 15.04269593573009
SL-16 R/B               
1 28353U 04021B   14284.49761183  .00000182  00000-0  12061-3 0  8584
2 28353  71.0009 332.9029 0006990 254.1244 205.2923 14.14083345533663
CZ-2C R/B               
1 28480U 04046B   14284.06875611  .00000230  00000-0  10343-3 0  4612
2 28480  98.1059  71.2251 0141760 238.8112 248.6250 14.25346740514595
ARIANE 5 R/B            
1 28499U 04049H   14283.78960771  .00000502  00000-0  70605-4 0  1162
2 28499  98.1878 339.7133 0095066 135.6565   2.2179 14.78977878529026
CZ-2D R/B               
1 28738U 05024B   14283.44996444  .00003413  00000-0  23020-3 0  8777
2 28738  97.6202 317.6922 0014685 125.0433 235.2174 15.07235106507824
SUZAKU (ASTRO-EII)      
1 28773U 05025A   14283.13392405  .00005017  00000-0  29857-3 0  3861
2 28773  31.3818 158.7357 0005720 254.4106 240.5950 15.09734695508574
ALOS (DAICHI)           
1 28931U 06002A   14283.78068209  .00000687  00000-0  14800-3 0   728
2 28931  97.9698 337.7395 0002085 133.5362   3.8600 14.61348968464201
H-2A R/B                
1 28932U 06002B   14284.16920508  .00001980  00000-0  20403-3 0  8294
2 28932  98.2846 149.9058 0094077 275.9121 195.5085 14.88344791471838
AKARI (ASTRO-F)         
1 28939U 06005A   14284.17752341  .00006945  00000-0  31112-3 0  5846
2 28939  98.1904  16.8140 0145649 317.7507  99.2206 15.12537499463976
RESURS-DK 1             
1 29228U 06021A   14284.56239536  .00001356  00000-0  11390-3 0  3200
2 29228  69.9358  68.7092 0003165   4.7559  64.3999 15.00865606461033
GENESIS 1               
1 29252U 06029A   14283.65240936  .00004704  00000-0  28143-3 0  3529
2 29252  64.5091 239.6793 0045554 300.7781 114.3143 15.11451182453283
CZ-4B R/B               
1 29507U 06046C   14284.46125703  .00002714  00000-0  23541-3 0  6478
2 29507  97.7601 277.3878 0038145 316.1264  43.6930 14.97377361434241
ATLAS 5 CENTAUR R/B     
1 30778U 07006G   14283.90964573  .00099873  00000-0  95308-3 0  1298
2 30778  35.6804  91.5885 0003027 204.5528 282.7552 15.65479143422966
CZ-2C R/B               
1 31114U 07010B   14283.91677833  .00000117  00000-0  74065-4 0   828
2 31114  98.3826 220.4421 0060128 179.3179 180.8090 14.19033186388480
COSMO-SKYMED 1          
1 31598U 07023A   14284.39546790 -.00000778  00000-0 -91260-4 0  1583
2 31598  97.8781 107.0797 0001838  64.6919 295.4555 14.82146270397317
GENESIS 2               
1 31789U 07028A   14283.75873500  .00003666  00000-0  22980-3 0   668
2 31789  64.5078 273.9065 0008986 332.3601  27.7039 15.10947040400431
COSMOS 2428             
1 31792U 07029A   14284.48639718  .00000326  00000-0  20241-3 0   775
2 31792  70.9701 305.8709 0011037 301.1973 228.0406 14.12441583375736
SL-16 R/B               
1 31793U 07029B   14284.49241152 -.00000078  00000-0 -15902-4 0   975
2 31793  70.9764 286.8800 0002634 274.1578 248.9908 14.14292129376190
KORONAS-FOTON           
1 33504U 09003A   14283.50730622  .00002845  00000-0  16713-3 0  1510
2 33504  82.4435 125.7421 0019615 251.6341 123.4871 15.11173952313131
TIANGONG 1              
1 37820U 11053A   14284.55679119  .00055906  00000-0  46000-3 0  4748
2 37820  42.7708 330.8365 0006012  58.7775  91.7239 15.69539258174316
CUSAT 2 & FALCON 9 R/B  
1 39271U 13055G   14284.41426817  .00015566  00000-0  47318-3 0  3621
2 39271  80.9730 297.3612 0742112 176.6361 184.0237 14.10721549 52891
SL-4 R/B                
1 40096U 14041B   14284.53500138  .00475622  68565-5  78305-3 0  1611
2 40096  64.8815 349.9318 0118214  26.3924 334.3188 15.90888817 13271
